GLOBALSTAR M001 [-]     
1 25162U 98008A   23298.46778451 -.00000063  00000+0  25530-3 0  9994
2 25162  52.0031 281.6022 0001939  62.1813 114.3701 12.38169138169299
GLOBALSTAR M004 [-]     
1 25163U 98008B   23298.59610563 -.00000094  00000+0  54538-4 0  9993
2 25163  51.9984  86.3325 0003499  50.2790  29.1430 12.63340696185777
GLOBALSTAR M003 [-]     
1 25165U 98008D   23298.59374177  .00000040  00000+0  13803-2 0  9991
2 25165  51.9789  32.0356 0008351 161.9855 303.4946 12.11947657160392
GLOBALSTAR M006 [-]     
1 25307U 98023B   23298.28485542 -.00000040  00000+0  73432-3 0  9997
2 25307  51.9929 272.7184 0003733 102.3795  34.3736 11.58155511147201
GLOBALSTAR M015 [-]     
1 25308U 98023C   23298.45887242  .00000018  00000+0  20766-2 0  9995
2 25308  51.9846 343.2336 0012649  88.5793  15.0092 11.48855448125035
GLOBALSTAR M008 [-]     
1 25309U 98023D   23298.27266225 -.00000078  00000+0  14280-3 0  9990
2 25309  51.9943 140.1971 0002623  11.0385 161.0821 12.36030185163532
